QIANFAN-41              
1 62242U 24232F   25200.92830639  .00000080  00000+0  10582-3 0  9994
2 62242  88.9937  55.9473 0012037 251.1503 108.8343 13.50958284 79564
QIANFAN-42              
1 62243U 24232G   25201.56499207  .00000215  00000+0  86742-4 0  9990
2 62243  88.9933  53.9735 0014229 190.7213 169.3679 14.24329841 80706
QIANFAN-43              
1 62244U 24232H   25201.51659810  .00000088  00000+0  11776-3 0  9996
2 62244  88.9941  55.9464 0013535 255.3979 104.5671 13.50951184 48259
QIANFAN-44              
1 62245U 24232J   25201.57838186  .00000073  00000+0  94734-4 0  9998
2 62245  88.9939  55.7530 0011768 251.5732 108.4140 13.50946749 79732
QIANFAN-45              
1 62246U 24232K   25200.87891994  .00000075  00000+0  98263-4 0  9990
2 62246  88.9943  55.9656 0012410 253.6284 106.3503 13.50956972 79569
QIANFAN-46              
1 62247U 24232L   25200.97769834  .00000057  00000+0  70053-4 0  9996
2 62247  88.9939  56.0306 0012457 259.6730 100.3017 13.50959110 79530
QIANFAN-47              
1 62248U 24232M   25201.57425901  .00000071  00000+0  91620-4 0  9997
2 62248  88.9935  55.9087 0012889 256.6938 103.2776 13.50958755 79647
QIANFAN-48              
1 62249U 24232N   25201.01878672  .00000078  00000+0  10195-3 0  9998
2 62249  88.9939  55.9612 0015143 261.6226  98.3209 13.50952277 79578
